{
    "links": {
        "self": "http://www.neowsapp.com/rest/v1/neo/3683805?api_key=iIulBulltgU6a56xZRHN4H3l9WmuAYTsLGpBGhQ2"
    },
    "id": "3683805",
    "neo_reference_id": "3683805",
    "name": "(2014 QN296)",
    "designation": "2014 QN296",
    "nasa_jpl_url": "http://ssd.jpl.nasa.gov/sbdb.cgi?sstr=3683805",
    "absolute_magnitude_h": 26.0,
    "estimated_diameter": {
        "kilometers": {
            "estimated_diameter_min": 0.0167708462,
            "estimated_diameter_max": 0.0375007522
        },
        "meters": {
            "estimated_diameter_min": 16.7708462163,
            "estimated_diameter_max": 37.5007521798
        },
        "miles": {
            "estimated_diameter_min": 0.0104209175,
            "estimated_diameter_max": 0.0233018799
        },
        "feet": {
            "estimated_diameter_min": 55.0224631002,
            "estimated_diameter_max": 123.0339677816
        }
    },
    "is_potentially_hazardous_asteroid": false,
    "close_approach_data": [
        {
            "close_approach_date": "2014-08-09",
            "close_approach_date_full": "2014-Aug-09 15:38",
            "epoch_date_close_approach": 1407598680000,
            "relative_velocity": {
                "kilometers_per_second": "7.0024905909",
                "kilometers_per_hour": "25208.9661273676",
                "miles_per_hour": "15663.8712028635"
            },
            "miss_distance": {
                "astronomical": "0.030246664",
                "lunar": "11.765952296",
                "kilometers": "4524836.50900568",
                "miles": "2811603.030931184"
            },
            "orbiting_body": "Earth"
        }
    ],
    "orbital_data": {
        "orbit_id": "3",
        "orbit_determination_date": "2017-04-06 08:39:09",
        "first_observation_date": "2014-08-20",
        "last_observation_date": "2014-08-27",
        "data_arc_in_days": 7,
        "observations_used": 8,
        "orbit_uncertainty": "9",
        "minimum_orbit_intersection": ".0259966",
        "jupiter_tisserand_invariant": "3.440",
        "epoch_osculation": "2456893.5",
        "eccentricity": ".5336219511803499",
        "semi_major_axis": "2.23129339326371",
        "inclination": ".7407233562576733",
        "ascending_node_longitude": "146.1753166768739",
        "orbital_period": "1217.400416908254",
        "perihelion_distance": "1.040626259094505",
        "perihelion_argument": "163.8545016568683",
        "aphelion_distance": "3.421960527432914",
        "perihelion_time": "2456873.671029359285",
        "mean_anomaly": "5.8636659980669",
        "mean_motion": ".2957120722155382",
        "equinox": "J2000",
        "orbit_class": {
            "orbit_class_type": "AMO",
            "orbit_class_description": "Near-Earth asteroid orbits similar to that of 1221 Amor",
            "orbit_class_range": "1.017 AU < q (perihelion) < 1.3 AU"
        }
    },
    "is_sentry_object": false
}